{"type": "FeatureCollection", "features": [ {"type": "Feature", "properties": {"norad_id": 43262, "name": "GAOFEN-1 04", "group": "resource", "lat": 50.50336885522016, "lon": 34.394691482480695, "alt_km": 635.1806257780918, "timestamp": "2025-12-12T11:38:31.073873+00:00", "meta": {"OBJECT_NAME": "GAOFEN-1 04", "OBJECT_ID": "2018-031D", "EPOCH": "2025-12-12T04:54:17.538624", "MEAN_MOTION": 14.7644983, "ECCENTRICITY": 0.0001062, "INCLINATION": 98.0805, "RA_OF_ASC_NODE": 44.0392, "ARG_OF_PERICENTER": 58.1833, "MEAN_ANOMALY": 301.948, "EPHEMERIS_TYPE": 0, "CLASSIFICATION_TYPE": "U", "NORAD_CAT_ID": 43262, "ELEMENT_SET_NO": 999, "REV_AT_EPOCH": 41509, "BSTAR": 0.00029999, "MEAN_MOTION_DOT": 2.035e-05, "MEAN_MOTION_DDOT": 0}, "tle": {"line1": "1 43262U 18031D   25346.20436966  .00002035  00000+0  29999-3 0  9996", "line2": "2 43262  98.0805  44.0392 0001062  58.1833 301.9480 14.76449830415098"}}, "geometry": {"type": "Point", "coordinates": [34.394691482480695, 50.50336885522016]}}, {"type": "Feature", "properties": {"norad_id": 43437, "name": "SENTINEL-3B", "group": "resource", "lat": -79.18738557345716, "lon": 179.03052077152316, "alt_km": 811.0275201998111, "timestamp": "2025-12-12T11:38:31.073883+00:00", "meta": {"OBJECT_NAME": "SENTINEL-3B", "OBJECT_ID": "2018-039A", "EPOCH": "2025-12-11T10:50:50.552736", "MEAN_MOTION": 14.26742264, "ECCENTRICITY": 0.00015576, "INCLINATION": 98.6268, "RA_OF_ASC_NODE": 50.6556, "ARG_OF_PERICENTER": 104.2946, "MEAN_ANOMALY": 255.8408, "EPHEMERIS_TYPE": 0, "CLASSIFICATION_TYPE": "U", "NORAD_CAT_ID": 43437, "ELEMENT_SET_NO": 999, "REV_AT_EPOCH": 39735, "BSTAR": 0.00012251697, "MEAN_MOTION_DOT": 2.53e-06, "MEAN_MOTION_DDOT": 0}, "tle": {"line1": "1 43437U 18039A   25345.45197399  .00000253  00000+0  12252-3 0  9992", "line2": "2 43437  98.6268  50.6556 0001557 104.2946 255.8408 14.26742264397350"}}, "geometry": {"type": "Point", "coordinates": [179.03052077152316, -79.18738557345716]}}, {"type": "Feature", "properties": {"norad_id": 43461, "name": "GAOFEN-5 01", "group": "resource", "lat": -41.20915633496517, "lon": 121.98353938056023, "alt_km": 698.7631642498573, "timestamp": "2025-12-12T11:38:31.073894+00:00", "meta": {"OBJECT_NAME": "GAOFEN-5 01", "OBJECT_ID": "2018-043A", "EPOCH": "2025-12-12T04:03:09.332928", "MEAN_MOTION": 14.60409081, "ECCENTRICITY": 9.96e-05, "INCLINATION": 98.4325, "RA_OF_ASC_NODE": 309.1261, "ARG_OF_PERICENTER": 342.6516, "MEAN_ANOMALY": 17.4649, "EPHEMERIS_TYPE": 0, "CLASSIFICATION_TYPE": "U", "NORAD_CAT_ID": 43461, "ELEMENT_SET_NO": 999, "REV_AT_EPOCH": 40439, "BSTAR": 0.00017211, "MEAN_MOTION_DOT": 7.84e-06, "MEAN_MOTION_DDOT": 0}, "tle": {"line1": "1 43461U 18043A   25346.16885802  .00000784  00000+0  17211-3 0  9995", "line2": "2 43461  98.4325 309.1261 0000996 342.6516  17.4649 14.60409081404398"}}, "geometry": {"type": "Point", "coordinates": [121.98353938056023, -41.20915633496517]}}, {"type": "Feature", "properties": {"norad_id": 43484, "name": "GAOFEN-6", "group": "resource", "lat": -22.353954869226882, "lon": -132.47255230737522, "alt_km": 652.5154254480867, "timestamp": "2025-12-12T11:38:31.073903+00:00", "meta": {"OBJECT_NAME": "GAOFEN-6", "OBJECT_ID": "2018-048A", "EPOCH": "2025-12-12T04:13:24.259872", "MEAN_MOTION": 14.7656529, "ECCENTRICITY": 0.0013238, "INCLINATION": 97.8029, "RA_OF_ASC_NODE": 50.4614, "ARG_OF_PERICENTER": 65.288, "MEAN_ANOMALY": 294.9706, "EPHEMERIS_TYPE": 0, "CLASSIFICATION_TYPE": "U", "NORAD_CAT_ID": 43484, "ELEMENT_SET_NO": 999, "REV_AT_EPOCH": 40579, "BSTAR": 0.00020813, "MEAN_MOTION_DOT": 1.404e-05, "MEAN_MOTION_DDOT": 0}, "tle": {"line1": "1 43484U 18048A   25346.17597523  .00001404  00000+0  20813-3 0  9998", "line2": "2 43484  97.8029  50.4614 0013238  65.2880 294.9706 14.76565290405793"}}, "geometry": {"type": "Point", "coordinates": [-132.47255230737522, -22.353954869226882]}}, {"type": "Feature", "properties": {"norad_id": 43585, "name": "GAOFEN-11 01", "group": "resource", "lat": -56.931002561419625, "lon": 60.546822749332314, "alt_km": 423.3011408181692, "timestamp": "2025-12-12T11:38:31.073913+00:00", "meta": {"OBJECT_NAME": "GAOFEN-11 01", "OBJECT_ID": "2018-063A", "EPOCH": "2025-12-12T04:08:21.115968", "MEAN_MOTION": 15.49206882, "ECCENTRICITY": 0.0004243, "INCLINATION": 97.1559, "RA_OF_ASC_NODE": 49.1115, "ARG_OF_PERICENTER": 316.15, "MEAN_ANOMALY": 43.9414, "EPHEMERIS_TYPE": 0, "CLASSIFICATION_TYPE": "U", "NORAD_CAT_ID": 43585, "ELEMENT_SET_NO": 999, "REV_AT_EPOCH": 41133, "BSTAR": 0.000618, "MEAN_MOTION_DOT": 0.00033697, "MEAN_MOTION_DDOT": 0}, "tle": {"line1": "1 43585U 18063A   25346.17246662  .00033697  00000+0  61800-3 0  9992", "line2": "2 43585  97.1559  49.1115 0004243 316.1500  43.9414 15.49206882411335"}}, "geometry": {"type": "Point", "coordinates": [60.546822749332314, -56.931002561419625]}}, {"type": "Feature", "properties": {"norad_id": 43613, "name": "ICESAT-2", "group": "resource", "lat": 57.79080118425273, "lon": -122.51817364413837, "alt_km": 475.2871267926803, "timestamp": "2025-12-12T11:38:31.073923+00:00", "meta": {"OBJECT_NAME": "ICESAT-2", "OBJECT_ID": "2018-070A", "EPOCH": "2025-12-12T03:31:57.857952", "MEAN_MOTION": 15.28371997, "ECCENTRICITY": 0.0002727, "INCLINATION": 92.0043, "RA_OF_ASC_NODE": 240.5775, "ARG_OF_PERICENTER": 151.3031, "MEAN_ANOMALY": 208.8369, "EPHEMERIS_TYPE": 0, "CLASSIFICATION_TYPE": "U", "NORAD_CAT_ID": 43613, "ELEMENT_SET_NO": 999, "REV_AT_EPOCH": 40389, "BSTAR": 0.00067227, "MEAN_MOTION_DOT": 0.00018585, "MEAN_MOTION_DDOT": 0}, "tle": {"line1": "1 43613U 18070A   25346.14719743  .00018585  00000+0  67227-3 0  9992", "line2": "2 43613  92.0043 240.5775 0002727 151.3031 208.8369 15.28371997403891"}}, "geometry": {"type": "Point", "coordinates": [-122.51817364413837, 57.79080118425273]}}, {"type": "Feature", "properties": {"norad_id": 43719, "name": "HYSIS", "group": "resource", "lat": -55.02323295463631, "lon": -142.14704688601503, "alt_km": 641.6062518003982, "timestamp": "2025-12-12T11:38:31.073933+00:00", "meta": {"OBJECT_NAME": "HYSIS", "OBJECT_ID": "2018-096A", "EPOCH": "2025-12-12T04:04:57.287136", "MEAN_MOTION": 14.78644806, "ECCENTRICITY": 0.0001373, "INCLINATION": 98.0093, "RA_OF_ASC_NODE": 49.1501, "ARG_OF_PERICENTER": 57.4824, "MEAN_ANOMALY": 302.6519, "EPHEMERIS_TYPE": 0, "CLASSIFICATION_TYPE": "U", "NORAD_CAT_ID": 43719, "ELEMENT_SET_NO": 999, "REV_AT_EPOCH": 37978, "BSTAR": 0.00038252, "MEAN_MOTION_DOT": 2.75e-05, "MEAN_MOTION_DDOT": 0}, "tle": {"line1": "1 43719U 18096A   25346.17010749  .00002750  00000+0  38252-3 0  9993", "line2": "2 43719  98.0093  49.1501 0001373  57.4824 302.6519 14.78644806379787"}}, "geometry": {"type": "Point", "coordinates": [-142.14704688601503, -55.02323295463631]}}, {"type": "Feature", "properties": {"norad_id": 43783, "name": "KAZSTSAT", "group": "resource", "lat": 81.93805117903588, "lon": -90.7153460452493, "alt_km": 563.5894946259632, "timestamp": "2025-12-12T11:38:31.073943+00:00", "meta": {"OBJECT_NAME": "KAZSTSAT", "OBJECT_ID": "2018-099AB", "EPOCH": "2025-12-12T01:37:06.339072", "MEAN_MOTION": 14.99350068, "ECCENTRICITY": 0.0005926, "INCLINATION": 97.4559, "RA_OF_ASC_NODE": 21.2815, "ARG_OF_PERICENTER": 333.101, "MEAN_ANOMALY": 26.9906, "EPHEMERIS_TYPE": 0, "CLASSIFICATION_TYPE": "U", "NORAD_CAT_ID": 43783, "ELEMENT_SET_NO": 999, "REV_AT_EPOCH": 38326, "BSTAR": 0.00018865, "MEAN_MOTION_DOT": 2.251e-05, "MEAN_MOTION_DDOT": 0}, "tle": {"line1": "1 43783U 18099AB  25346.06743448  .00002251  00000+0  18865-3 0  9998", "line2": "2 43783  97.4559  21.2815 0005926 333.1010  26.9906 14.99350068383267"}}, "geometry": {"type": "Point", "coordinates": [-90.7153460452493, 81.93805117903588]}}, {"type": "Feature", "properties": {"norad_id": 43831, "name": "SAUDISAT 5A", "group": "resource", "lat": 57.46154785729825, "lon": -121.67072220993012, "alt_km": 477.6039572152158, "timestamp": "2025-12-12T11:38:31.073953+00:00", "meta": {"OBJECT_NAME": "SAUDISAT 5A", "OBJECT_ID": "2018-102A", "EPOCH": "2025-12-12T04:48:53.211168", "MEAN_MOTION": 15.25647146, "ECCENTRICITY": 0.0011756, "INCLINATION": 97.3353, "RA_OF_ASC_NODE": 46.4018, "ARG_OF_PERICENTER": 77.9921, "MEAN_ANOMALY": 282.2634, "EPHEMERIS_TYPE": 0, "CLASSIFICATION_TYPE": "U", "NORAD_CAT_ID": 43831, "ELEMENT_SET_NO": 999, "REV_AT_EPOCH": 38714, "BSTAR": 0.00039018, "MEAN_MOTION_DOT": 9.878e-05, "MEAN_MOTION_DDOT": 0}, "tle": {"line1": "1 43831U 18102A   25346.20061587  .00009878  00000+0  39018-3 0  9995", "line2": "2 43831  97.3353  46.4018 0011756  77.9921 282.2634 15.25647146387140"}}, "geometry": {"type": "Point", "coordinates": [-121.67072220993012, 57.46154785729825]}}, {"type": "Feature", "properties": {"norad_id": 43833, "name": "SAUDISAT 5B", "group": "resource", "lat": 6.131505804335472, "lon": -129.78702780668908, "alt_km": 490.6830083092509, "timestamp": "2025-12-12T11:38:31.073964+00:00", "meta": {"OBJECT_NAME": "SAUDISAT 5B", "OBJECT_ID": "2018-102C", "EPOCH": "2025-12-12T04:35:21.984288", "MEAN_MOTION": 15.26000432, "ECCENTRICITY": 0.0012474, "INCLINATION": 97.3448, "RA_OF_ASC_NODE": 49.1303, "ARG_OF_PERICENTER": 80.2742, "MEAN_ANOMALY": 279.9905, "EPHEMERIS_TYPE": 0, "CLASSIFICATION_TYPE": "U", "NORAD_CAT_ID": 43833, "ELEMENT_SET_NO": 999, "REV_AT_EPOCH": 38725, "BSTAR": 0.00044533, "MEAN_MOTION_DOT": 0.0001141, "MEAN_MOTION_DDOT": 0}, "tle": {"line1": "1 43833U 18102C   25346.19122667  .00011410  00000+0  44533-3 0  9995", "line2": "2 43833  97.3448  49.1303 0012474  80.2742 279.9905 15.26000432387258"}}, "geometry": {"type": "Point", "coordinates": [-129.78702780668908, 6.131505804335472]}}]}